OBJECT_NAME,OBJECT_ID,EPOCH,MEAN_MOTION,ECCENTRICITY,INCLINATION,RA_OF_ASC_NODE,ARG_OF_PERICENTER,MEAN_ANOMALY,EPHEMERIS_TYPE,CLASSIFICATION_TYPE,NORAD_CAT_ID,ELEMENT_SET_NO,REV_AT_EPOCH,BSTAR,MEAN_MOTION_DOT,MEAN_MOTION_DDOT
STARLINK-5441,2022-175AF,2026-07-20T06:00:04.000320,15.26589286,.00007937,53.1614,167.7901,58.7457,340.3332,0,U,54787,999,580,.17743579E-2,.47008E-3,0
STARLINK-5399,2022-175AG,2026-07-20T02:26:13.867296,15.35383959,.00009604,53.1618,151.2990,60.4539,299.6559,0,U,54788,999,20016,.1023158E-3,.3188E-4,0
STARLINK-5446,2022-175AH,2026-07-20T02:49:52.506912,15.08859724,.00014123,53.1601,139.0996,79.6251,280.4900,0,U,54789,999,20033,-.38566459E-3,-.6424E-4,0
STARLINK-5445,2022-175AJ,2026-07-20T02:48:29.280384,15.35395362,.00011748,53.1629,151.3908,88.7508,271.3630,0,U,54790,999,20016,.5864564E-5,-.176E-5,0
STARLINK-5425,2022-175AK,2026-07-20T05:36:13.446144,15.35397969,.00011047,53.1621,150.6989,90.0879,270.0251,0,U,54791,999,20018,.39341907E-4,.992E-5,0
STARLINK-5431,2022-175AL,2026-07-20T06:00:04.000320,15.26697712,.00013555,53.1597,167.7055,67.5952,15.3604,0,U,54792,999,570,.1760859E-2,.46801E-3,0
STARLINK-5433,2022-175AM,2026-07-20T03:02:31.279488,15.08835585,.00013129,53.1602,144.3046,79.1339,280.9801,0,U,54793,999,20026,-.4592472E-5,-.361E-5,0
STARLINK-5436,2022-175AP,2026-07-20T06:01:12.016992,15.34381308,.00014387,53.1619,148.7025,94.4255,265.6912,0,U,54795,999,20021,.8575339E-4,.252E-4,0
STARLINK-5415,2022-175AQ,2026-07-20T06:00:04.000320,15.35384643,.00012541,53.1613,150.8654,77.9099,249.7078,0,U,54796,999,575,.10136598E-2,.35125E-3,0
STARLINK-5435,2022-175AR,2026-07-20T06:00:04.000320,15.20033090,.00025713,53.1591,168.3329,57.8650,59.0698,0,U,54797,999,574,.18365354E-2,.39989E-3,0
STARLINK-5420,2022-175AS,2026-07-20T02:30:42.503904,15.08823946,.00017012,53.1616,144.1615,58.9123,301.2035,0,U,54798,999,20026,.20743611E-3,.3013E-4,0
STARLINK-5421,2022-175AT,2026-07-20T06:07:58.778688,15.08837517,.00014728,53.1605,143.6774,86.3111,273.8049,0,U,54799,999,20028,.24210574E-4,.97E-6,0
STARLINK-5428,2022-175AU,2026-07-20T02:41:58.038720,15.08816263,.00012417,53.1607,159.1279,74.5256,285.5872,0,U,54800,999,20005,.48907262E-4,.49E-5,0
STARLINK-5429,2022-175AV,2026-07-20T06:48:41.047488,15.31701705,.00011736,53.1616,164.5692,70.6039,289.5089,0,U,54801,999,19999,.40593073E-4,.895E-5,0
STARLINK-5426,2022-175AW,2026-07-20T01:08:31.796736,15.08016761,.00016792,53.1838,114.6574,87.6130,272.5054,0,U,54802,999,20067,-.5161697E-5,-.366E-5,0
STARLINK-5430,2022-175AX,2026-07-19T07:25:23.036160,15.08832268,.00012202,53.1601,172.6325,74.3843,285.7283,0,U,54803,999,19979,.56726399E-4,.615E-5,0
STARLINK-5422,2022-175AY,2026-07-20T06:58:29.847936,15.34037239,.00010573,53.1622,148.2394,74.7663,285.3456,0,U,54804,999,20022,.29415157E-2,.99178E-3,0
STARLINK-5417,2022-175AZ,2026-07-20T06:26:41.732448,15.08021023,.00015642,53.1851,153.9187,87.3409,272.7762,0,U,54805,999,20014,.31049123E-4,.197E-5,0
STARLINK-5412,2022-175BA,2026-07-20T05:50:24.676224,15.33562185,.00012979,53.1624,148.6542,81.3357,278.7792,0,U,54806,999,20021,.10657099E-3,.3135E-4,0
STARLINK-5410,2022-175BB,2026-07-20T06:00:04.000320,15.35230255,.00018471,53.1611,150.8322,79.5719,264.2332,0,U,54807,999,580,.22404655E-2,.7816E-3,0
STARLINK-5413,2022-175BC,2026-07-20T04:51:51.168384,15.08840086,.00014836,53.1607,139.1223,75.7883,284.3273,0,U,54808,999,20034,.6452578E-5,-.185E-5,0
STARLINK-5414,2022-175BD,2026-07-20T02:14:12.132672,15.34386308,.00015054,53.1618,149.1401,85.6047,274.5128,0,U,54809,999,20019,.28582716E-4,.589E-5,0
STARLINK-5408,2022-175BE,2026-07-20T06:00:04.000320,15.23177377,.00015356,53.1610,148.0192,72.6759,224.4820,0,U,54810,999,555,.32254996E-2,.77715E-3,0
STARLINK-5424,2022-175BF,2026-07-20T06:00:04.000320,15.23890304,.00023447,53.1596,148.2532,80.5923,92.4723,0,U,54811,999,574,.28738071E-2,.70623E-3,0
STARLINK-5382,2022-177A,2026-07-19T00:51:48.691008,15.27575648,.00013064,43.0024,114.0759,264.1689,95.9014,0,U,54820,999,19701,.23857404E-4,.394E-5,0
STARLINK-5385,2022-177B,2026-07-19T18:24:11.111328,15.27576745,.00009306,43.0022,110.0961,258.3543,101.7204,0,U,54821,999,19712,.10963166E-4,.4E-6,0
STARLINK-5101,2022-177C,2026-07-20T04:09:28.901952,15.27575113,.00007849,43.0024,107.9808,257.2992,102.7772,0,U,54822,999,19718,.42439495E-4,.906E-5,0
STARLINK-5106,2022-177D,2026-07-19T04:05:40.758432,15.27575661,.00007949,43.0032,113.3606,166.9349,193.1523,0,U,54823,999,19703,.3944107E-5,-.153E-5,0
STARLINK-4643,2022-177E,2026-07-19T04:11:15.671616,15.27557900,.00010338,43.0022,113.3880,269.5688,90.5045,0,U,54824,999,19703,-.73654029E-4,-.2287E-4,0
STARLINK-5107,2022-177G,2026-07-20T04:03:56.935008,15.27564483,.00008355,43.0023,107.9410,252.9094,107.1666,0,U,54826,999,19718,.8785378E-5,-.2E-6,0
