STARLINK-5441           
1 54787U 22175AF  26201.25004630  .00047008  00000+0  17744-2 0  9992
2 54787  53.1614 167.7901 0000793  58.7457 340.3332 15.26589286  5802
STARLINK-5399           
1 54788U 22175AG  26201.10154939  .00003188  00000+0  10232-3 0  9992
2 54788  53.1618 151.2990 0000960  60.4539 299.6559 15.35383959200162
STARLINK-5446           
1 54789U 22175AH  26201.11796883 -.00006424  00000+0 -38566-3 0  9992
2 54789  53.1601 139.0996 0001412  79.6251 280.4900 15.08859724200336
STARLINK-5445           
1 54790U 22175AJ  26201.11700556 -.00000176  00000+0  58646-5 0  9996
2 54790  53.1629 151.3908 0001174  88.7508 271.3630 15.35395362200162
STARLINK-5425           
1 54791U 22175AK  26201.23348896  .00000992  00000+0  39342-4 0  9991
2 54791  53.1621 150.6989 0001104  90.0879 270.0251 15.35397969200188
STARLINK-5431           
1 54792U 22175AL  26201.25004630  .00046801  00000+0  17609-2 0  9998
2 54792  53.1597 167.7055 0001355  67.5952  15.3604 15.26697712  5705
STARLINK-5433           
1 54793U 22175AM  26201.12675092 -.00000361  00000+0 -45925-5 0  9999
2 54793  53.1602 144.3046 0001312  79.1339 280.9801 15.08835585200264
STARLINK-5436           
1 54795U 22175AP  26201.25083353  .00002520  00000+0  85753-4 0  9997
2 54795  53.1619 148.7025 0001438  94.4255 265.6912 15.34381308200211
STARLINK-5415           
1 54796U 22175AQ  26201.25004630  .00035125  00000+0  10137-2 0  9998
2 54796  53.1613 150.8654 0001254  77.9099 249.7078 15.35384643  5750
STARLINK-5435           
1 54797U 22175AR  26201.25004630  .00039989  00000+0  18365-2 0  9992
2 54797  53.1591 168.3329 0002571  57.8650  59.0698 15.20033090  5742
STARLINK-5420           
1 54798U 22175AS  26201.10465861  .00003013  00000+0  20744-3 0  9998
2 54798  53.1616 144.1615 0001701  58.9123 301.2035 15.08823946200266
STARLINK-5421           
1 54799U 22175AT  26201.25554142  .00000097  00000+0  24211-4 0  9999
2 54799  53.1605 143.6774 0001472  86.3111 273.8049 15.08837517200282
STARLINK-5428           
1 54800U 22175AU  26201.11247730  .00000490  00000+0  48907-4 0  9994
2 54800  53.1607 159.1279 0001241  74.5256 285.5872 15.08816263200056
STARLINK-5429           
1 54801U 22175AV  26201.28380842  .00000895  00000+0  40593-4 0  9997
2 54801  53.1616 164.5692 0001173  70.6039 289.5089 15.31701705199990
STARLINK-5426           
1 54802U 22175AW  26201.04759024 -.00000366  00000+0 -51617-5 0  9999
2 54802  53.1838 114.6574 0001679  87.6130 272.5054 15.08016761200670
STARLINK-5430           
1 54803U 22175AX  26200.30929440  .00000615  00000+0  56726-4 0  9999
2 54803  53.1601 172.6325 0001220  74.3843 285.7283 15.08832268199791
STARLINK-5422           
1 54804U 22175AY  26201.29062324  .00099178  00000+0  29415-2 0  9993
2 54804  53.1622 148.2394 0001057  74.7663 285.3456 15.34037239200225
STARLINK-5417           
1 54805U 22175AZ  26201.26853857  .00000197  00000+0  31049-4 0  9991
2 54805  53.1851 153.9187 0001564  87.3409 272.7762 15.08021023200140
STARLINK-5412           
1 54806U 22175BA  26201.24334116  .00003135  00000+0  10657-3 0  9998
2 54806  53.1624 148.6542 0001297  81.3357 278.7792 15.33562185200218
STARLINK-5410           
1 54807U 22175BB  26201.25004630  .00078160  00000+0  22405-2 0  9998
2 54807  53.1611 150.8322 0001847  79.5719 264.2332 15.35230255  5808
STARLINK-5413           
1 54808U 22175BC  26201.20267556 -.00000185  00000+0  64526-5 0  9998
2 54808  53.1607 139.1223 0001483  75.7883 284.3273 15.08840086200342
STARLINK-5414           
1 54809U 22175BD  26201.09319598  .00000589  00000+0  28583-4 0  9999
2 54809  53.1618 149.1401 0001505  85.6047 274.5128 15.34386308200195
STARLINK-5408           
1 54810U 22175BE  26201.25004630  .00077715  00000+0  32255-2 0  9991
2 54810  53.1610 148.0192 0001535  72.6759 224.4820 15.23177377  5551
STARLINK-5424           
1 54811U 22175BF  26201.25004630  .00070623  00000+0  28738-2 0  9994
2 54811  53.1596 148.2532 0002344  80.5923  92.4723 15.23890304  5743
STARLINK-5382           
1 54820U 22177A   26200.03598022  .00000394  00000+0  23857-4 0  9991
2 54820  43.0024 114.0759 0001306 264.1689  95.9014 15.27575648197013
STARLINK-5385           
1 54821U 22177B   26200.76679527  .00000040  00000+0  10963-4 0  9994
2 54821  43.0022 110.0961 0000930 258.3543 101.7204 15.27576745197127
STARLINK-5101           
1 54822U 22177C   26201.17325118  .00000906  00000+0  42439-4 0  9999
2 54822  43.0024 107.9808 0000784 257.2992 102.7772 15.27575113197183
STARLINK-5106           
1 54823U 22177D   26200.17061063 -.00000153  00000+0  39441-5 0  9990
2 54823  43.0032 113.3606 0000794 166.9349 193.1523 15.27575661197033
STARLINK-4643           
1 54824U 22177E   26200.17448694 -.00002287  00000+0 -73654-4 0  9994
2 54824  43.0022 113.3880 0001033 269.5688  90.5045 15.27557900197035
STARLINK-5107           
1 54826U 22177G   26201.16940897 -.00000020  00000+0  87854-5 0  9998
2 54826  43.0023 107.9410 0000835 252.9094 107.1666 15.27564483197186
